1649225101
1 51085U 22002DF  22095.65692321  .00006400  00000+0  37724-3 0  9992
2 51085  97.4940 163.8247 0013712 331.5975 180.8982 15.11848560 12392
1649246701
1 51085U 22002DF  22095.78709118  .00006377  00000+0  37585-3 0  9997
2 51085  97.4941 163.9522 0013726 330.9950 169.5089 15.11849910 12416
1649268301
1 51085U 22002DF  22096.23780275  .00006250  00000+0  36839-3 0  9992
2 51085  97.4936 164.3941 0013721 329.2985 102.7173 15.11854458 12487
1649289901
1 51085U 22002DF  22096.43343928  .00006210  00000+0  36607-3 0  9993
2 51085  97.4936 164.5860 0013717 328.6726  87.4537 15.11856563 12516
1649311501
1 51085U 22002DF  22096.43343928  .00006210  00000+0  36607-3 0  9993
2 51085  97.4936 164.5860 0013717 328.6726  87.4537 15.11856563 12516
1649333101
1 51085U 22002DF  22096.77917472  .00006076  00000+0  35821-3 0  9998
2 51085  97.4934 164.9252 0013765 327.2576 169.4015 15.11859767 12560
1649354701
1 51085U 22002DF  22097.09664854  .00005842  00000+0  34455-3 0  9999
2 51085  97.4931 165.2361 0013812 326.3278  97.1388 15.11861630 12612
1649376301
1 51085U 22002DF  22097.09664854  .00005842  00000+0  34455-3 0  9999
2 51085  97.4931 165.2361 0013812 326.3278  97.1388 15.11861630 12612
1649397901
1 51085U 22002DF  22097.56824076  .00005669  00000+0  33446-3 0  9991
2 51085  97.4931 165.6985 0013780 324.5470 144.0280 15.11865835 12687
1649419501
1 51085U 22002DF  22097.90043420  .00005276  00000+0  31151-3 0  9990
2 51085  97.4924 166.0237 0013842 323.4631 151.9844 15.11866444 12736
1649441102
1 51085U 22002DF  22098.15343602  .00005163  00000+0  30489-3 0  9991
2 51085  97.4922 166.2719 0013846 322.8076  88.7831 15.11868333 12777
1649462701
1 51085U 22002DF  22098.41896126  .00005130  00000+0  30298-3 0  9996
2 51085  97.4922 166.5323 0013852 321.9029  93.9539 15.11870841 12811
1649484301
1 51085U 22002DF  22098.56048345  .00005078  00000+0  29995-3 0  9997
2 51085  97.4924 166.6711 0013819 321.2491 144.3874 15.11871971 12834
1649505901
1 51085U 22002DF  22098.76682227  .00004963  00000+0  29323-3 0  9999
2 51085  97.4923 166.8737 0013774 320.3427 187.6272 15.11873170 12860
1649527501
1 51085U 22002DF  22099.14699434  .00004819  00000+0  28483-3 0  9996
2 51085  97.4919 167.2465 0013683 319.0748  96.7632 15.11875984 12920
1649549101
1 51085U 22002DF  22099.14699434  .00004819  00000+0  28483-3 0  9996
2 51085  97.4919 167.2465 0013683 319.0748  96.7632 15.11875984 12920
1649570701
1 51085U 22002DF  22099.41186605  .00004770  00000+0  28192-3 0  9990
2 51085  97.4919 167.5063 0013625 318.1121  98.4456 15.11878261 12966
1649592301
1 51085U 22002DF  22099.75951542  .00004759  00000+0  28130-3 0  9996
2 51085  97.4916 167.8468 0013629 316.8162 190.7182 15.11881572 13017
1649613901
1 51085U 22002DF  22100.13961917  .00004769  00000+0  28181-3 0  9995
2 51085  97.4918 168.2199 0013579 315.0552  99.9948 15.11885488 13079
1649635501
1 51085U 22002DF  22100.47103441  .00005459  00000+0  32199-3 0  9993
2 51085  97.4911 168.5450 0013431 311.9687 105.7771 15.11891917 13126
1649657101
1 51085U 22002DF  22100.47103441  .00005459  00000+0  32199-3 0  9993
2 51085  97.4911 168.5450 0013431 311.9687 105.7771 15.11891917 13126
1649678701
1 51085U 22002DF  22100.80879819  .00005489  00000+0  32371-3 0  9994
2 51085  97.4912 168.8762 0013363 310.7548 144.2145 15.11895691 13174
1649700301
1 51085U 22002DF  22101.13317119  .00005933  00000+0  34955-3 0  9995
2 51085  97.4912 169.1952 0013381 308.9785 110.3837 15.11900530 13228
1649721901
1 51085U 22002DF  22101.46354433  .00005742  00000+0  33837-3 0  9997
2 51085  97.4915 169.5190 0013361 308.2094 108.1837 15.11903888 13272
1649743501
1 51085U 22002DF  22101.46354433  .00005742  00000+0  33837-3 0  9997
2 51085  97.4915 169.5190 0013361 308.2094 108.1837 15.11903888 13272
1649765101
1 51085U 22002DF  22101.73943804  .00005533  00000+0  32620-3 0  9990
2 51085  97.4915 169.7894 0013360 307.1345 169.9581 15.11906540 13315
1649786701
1 51085U 22002DF  22102.12544149  .00005424  00000+0  31983-3 0  9993
2 51085  97.4916 170.1692 0013319 305.4852 111.2414 15.11910034 13370
1649808301
1 51085U 22002DF  22102.45612332  .00004764  00000+0  28137-3 0  9992
2 51085  97.4916 170.4938 0013333 305.0171 110.4272 15.11911673 13421
1649829901
1 51085U 22002DF  22102.45612332  .00004764  00000+0  28137-3 0  9992
2 51085  97.4916 170.4938 0013333 305.0171 110.4272 15.11911673 13421
1649851501
1 51085U 22002DF  22102.79448269  .00004356  00000+0  25757-3 0  9997
2 51085  97.4920 170.8258 0013321 303.5744 152.3532 15.11913560 13477
1649873101
1 51085U 22002DF  22103.05375285  .00004188  00000+0  24780-3 0  9992
2 51085  97.4918 171.0799 0013278 302.5268 123.6848 15.11915048 13517
1649894701
1 51085U 22002DF  22103.05375285  .00004188  00000+0  24780-3 0  9992
2 51085  97.4918 171.0799 0013278 302.5268 123.6848 15.11915048 13517
1649916301
1 51085U 22002DF  22103.59054781  .00005228  00000+0  30827-3 0  9991
2 51085  97.4914 171.6046 0013394 301.3324 164.7632 15.11924150 13592
1649937901
1 51085U 22002DF  22103.79519566  .00005225  00000+0  30809-3 0  9997
2 51085  97.4918 171.8053 0013360 300.4608 198.8127 15.11926194 13625
1649959501
1 51085U 22002DF  22104.17736466  .00005020  00000+0  29612-3 0  9993
2 51085  97.4916 172.1805 0013431 298.9838 119.0818 15.11928301 13687
1649981101
1 51085U 22002DF  22104.17736466  .00005020  00000+0  29612-3 0  9993
2 51085  97.4916 172.1805 0013431 298.9838 119.0818 15.11928301 13687
1650002701
1 51085U 22002DF  22104.44163575  .00004893  00000+0  28875-3 0  9995
2 51085  97.4916 172.4399 0013377 298.5859 116.9725 15.11929734 13725
1650024301
1 51085U 22002DF  22104.71797701  .00004789  00000+0  28267-3 0  9998
2 51085  97.4917 172.7112 0013401 297.2307 181.4833 15.11931635 13768
1650045901
1 51085U 22002DF  22105.10028685  .00004484  00000+0  26487-3 0  9994
2 51085  97.4913 173.0862 0013440 295.9285 102.3482 15.11932741 13821
1650067501
1 51085U 22002DF  22105.43587015  .00004408  00000+0  26048-3 0  9996
2 51085  97.4911 173.4152 0013400 294.9384 128.7455 15.11935150 13874
1650089101
1 51085U 22002DF  22105.43587015  .00004408  00000+0  26048-3 0  9996
2 51085  97.4911 173.4152 0013400 294.9384 128.7455 15.11935150 13874
1650110701
1 51085U 22002DF  22105.77733517  .00004230  00000+0  25005-3 0  9998
2 51085  97.4910 173.7501 0013413 293.2854 187.7999 15.11936841 13924
1650132301
1 51085U 22002DF  22106.15742600  .00004052  00000+0  23969-3 0  9993
2 51085  97.4909 174.1227 0013436 292.1677  96.4256 15.11938704 13986
1650153901
1 51085U 22002DF  22106.43935260  .00004022  00000+0  23793-3 0  9992
2 51085  97.4910 174.3990 0013410 291.0794 191.0639 15.11940824 14026
1650175501
1 51085U 22002DF  22106.43935260  .00004022  00000+0  23793-3 0  9992
2 51085  97.4910 174.3990 0013410 291.0794 191.0639 15.11940824 14026
1650197101
1 51085U 22002DF  22106.96953880  .00003802  00000+0  22513-3 0  9992
2 51085  97.4910 174.9194 0013350 288.7034 197.4070 15.11943526 14101
1650218701
1 51085U 22002DF  22107.15443009  .00003784  00000+0  22408-3 0  9993
2 51085  97.4910 175.1010 0013339 288.1689 123.6680 15.11944895 14139
1650240301
1 51085U 22002DF  22107.15443009  .00003784  00000+0  22408-3 0  9993
2 51085  97.4910 175.1010 0013339 288.1689 123.6680 15.11944895 14139
1650261901
1 51085U 22002DF  22107.29052979  .00003772  00000+0  22338-3 0  9999
2 51085  97.4909 175.2345 0013324 287.6688 144.4902 15.11945869 14158
1650283501
1 51085U 22002DF  22107.82384672  .00003718  00000+0  22020-3 0  9994
2 51085  97.4909 175.7576 0013305 285.6415 167.5284 15.11949512 14231
1650305101
1 51085U 22002DF  22108.14872575  .00003706  00000+0  21950-3 0  9992
2 51085  97.4909 176.0764 0013306 284.3423 136.0328 15.11951951 14285
1650326701
1 51085U 22002DF  22108.14872575  .00003706  00000+0  21950-3 0  9992
2 51085  97.4909 176.0764 0013306 284.3423 136.0328 15.11951951 14285
1650348301
1 51085U 22002DF  22108.55446991  .00003707  00000+0  21956-3 0  9993
2 51085  97.4908 176.4743 0013306 282.7161 184.7401 15.11955038 14345
1650369901
1 51085U 22002DF  22108.76149613  .00003718  00000+0  22019-3 0  9990
2 51085  97.4906 176.6770 0013313 282.1629 231.4314 15.11956628 14378
1650391501
1 51085U 22002DF  22109.14038795  .00003734  00000+0  22109-3 0  9999
2 51085  97.4906 177.0486 0013245 280.5187 134.0980 15.11959595 14432
1650413101
1 51085U 22002DF  22109.48438130  .00003756  00000+0  22237-3 0  9999
2 51085  97.4905 177.3862 0013240 278.9932 206.8164 15.11962411 14484
1650434701
1 51085U 22002DF  22109.48438130  .00003756  00000+0  22237-3 0  9999
2 51085  97.4905 177.3862 0013240 278.9932 206.8164 15.11962411 14484
1650456301
1 51085U 22002DF  22109.80950328  .00003785  00000+0  22401-3 0  9998
2 51085  97.4903 177.7047 0013226 277.8166 176.5346 15.11965067 14533
1650477901
1 51085U 22002DF  22110.13313213  .00003801  00000+0  22492-3 0  9991
2 51085  97.4903 178.0219 0013254 276.5159 138.2589 15.11967730 14585
1650499501
1 51085U 22002DF  22110.47732608  .00003846  00000+0  22752-3 0  9999
2 51085  97.4904 178.3598 0013258 274.8302 212.2404 15.11970793 14632
1650521101
1 51085U 22002DF  22110.47732608  .00003846  00000+0  22752-3 0  9999
2 51085  97.4904 178.3598 0013258 274.8302 212.2404 15.11970793 14632
1650542701
1 51085U 22002DF  22110.80231269  .00003884  00000+0  22971-3 0  9998
2 51085  97.4903 178.6784 0013252 273.7961 181.0903 15.11973616 14683
1650564301
1 51085U 22002DF  22111.12814828  .00003902  00000+0  23074-3 0  9998
2 51085  97.4903 178.9982 0013191 272.1143 155.2105 15.11976344 14737
1650585901
1 51085U 22002DF  22111.12814828  .00003902  00000+0  23074-3 0  9998
2 51085  97.4903 178.9982 0013191 272.1143 155.2105 15.11976344 14737
1650607501
1 51085U 22002DF  22111.46984192  .00003936  00000+0  23268-3 0  9999
2 51085  97.4905 179.3334 0013207 270.9762 215.0528 15.11979379 14786
